0 OBJECT AY
1 63256U 25052AY  25125.68028390  .00002117  00000-0  21144-3 0  9993
2 63256  97.7332  19.9223 0001897  91.6331 268.5105 14.92549259  7799
